TEVEL2-9                
1 63237U 25052AD  26068.70229538  .00018694  00000+0  67240-3 0  9992
2 63237  97.4057 324.3929 0007990 124.2475 235.9522 15.28633834 54816
STARLINK-34168          
1 64079U 25107R   26068.42669957  .00039647  00000+0  14423-2 0  9995
2 64079  43.0020 202.7402 0001303 242.1444 117.9276 15.27585044 46084
